start=new Date('2023-05-18T00:00:00.000Z').valueOf();
sats=[{"SITE":"AFETR","CLASSIFICATION_TYPE":"U","MEAN_MOTION_DDOT":"0.0000000000000","GP_ID":"232043596","PERIOD":"95.436","LAUNCH_DATE":"2022-05-18","RA_OF_ASC_NODE":"76.5597","DECAY_DATE":null,"RCS_SIZE":"LARGE","FILE":"3910633","MEAN_MOTION":"15.08856676","MEAN_MOTION_DOT":"0.00000646","APOAPSIS":"540.817","ELEMENT_SET_NO":"999","MEAN_ELEMENT_THEORY":"SGP4","REF_FRAME":"TEME","NORAD_CAT_ID":"52679","TLE_LINE1":"1 52679U 22053Z   23137.23134567  .00000646  00000-0  58651-4 0  9993","BSTAR":"0.00005865100000","EPOCH":"2023-05-17T05:33:08.265888","EPHEMERIS_TYPE":"0","COUNTRY_CODE":"US","ARG_OF_PERICENTER":"101.3542","ECCENTRICITY":"0.00016230","INCLINATION":"53.2185","REV_AT_EPOCH":"5602","MEAN_ANOMALY":"258.7632","CENTER_NAME":"EARTH","OBJECT_TYPE":"PAYLOAD","PERIAPSIS":"538.572","TIME_SYSTEM":"UTC","OBJECT_NAME":"STARLINK-4031","OBJECT_ID":"2022-053Z","SEMIMAJOR_AXIS":"6917.829","TLE_LINE2":"2 52679  53.2185  76.5597 0001623 101.3542 258.7632 15.08856676 56020"},{"CLASSIFICATION_TYPE":"U","SITE":"AFETR","PERIOD":"95.438","MEAN_MOTION_DDOT":"0.0000000000000","GP_ID":"232043846","LAUNCH_DATE":"2022-05-18","RA_OF_ASC_NODE":"76.4920","RCS_SIZE":"LARGE","DECAY_DATE":null,"FILE":"3910633","MEAN_MOTION":"15.08838991","MEAN_MOTION_DOT":"0.00000179","APOAPSIS":"540.662","ELEMENT_SET_NO":"999","MEAN_ELEMENT_THEORY":"SGP4","TLE_LINE1":"1 52680U 22053AA  23137.24607434  .00000179  00000-0  29354-4 0  9993","BSTAR":"0.00002935400000","EPOCH":"2023-05-17T05:54:20.822976","EPHEMERIS_TYPE":"0","NORAD_CAT_ID":"52680","REF_FRAME":"TEME","ECCENTRICITY":"0.00013200","INCLINATION":"53.2183","ARG_OF_PERICENTER":"90.4097","COUNTRY_CODE":"US","REV_AT_EPOCH":"5604","MEAN_ANOMALY":"269.7047","CENTER_NAME":"EARTH","PERIAPSIS":"538.835","TIME_SYSTEM":"UTC","OBJECT_NAME":"STARLINK-3774","OBJECT_TYPE":"PAYLOAD","OBJECT_ID":"2022-053AA","SEMIMAJOR_AXIS":"6917.883","TLE_LINE2":"2 52680  53.2183  76.4920 0001320  90.4097 269.7047 15.08838991 56040"},{"MEAN_MOTION":"15.08843433","MEAN_MOTION_DOT":"-0.00000537","RCS_SIZE":"LARGE","DECAY_DATE":null,"RA_OF_ASC_NODE":"77.1687","FILE":"3910633","LAUNCH_DATE":"2022-05-18","SITE":"AFETR","CLASSIFICATION_TYPE":"U","MEAN_MOTION_DDOT":"0.0000000000000","GP_ID":"232045096","PERIOD":"95.437","OBJECT_TYPE":"PAYLOAD","OBJECT_NAME":"STARLINK-4068","TIME_SYSTEM":"UTC","PERIAPSIS":"539.064","SEMIMAJOR_AXIS":"6917.870","TLE_LINE2":"2 52681  53.2167  77.1687 0000970  99.5153 260.5949 15.08843433 56007","OBJECT_ID":"2022-053AB","COUNTRY_CODE":"US","ARG_OF_PERICENTER":"99.5153","INCLINATION":"53.2167","ECCENTRICITY":"0.00009700","CENTER_NAME":"EARTH","MEAN_ANOMALY":"260.5949","REV_AT_EPOCH":"5600","MEAN_ELEMENT_THEORY":"SGP4","NORAD_CAT_ID":"52681","REF_FRAME":"TEME","EPHEMERIS_TYPE":"0","EPOCH":"2023-05-17T02:17:04.929216","BSTAR":"-0.00001565000000","TLE_LINE1":"1 52681U 22053AB  23137.09519594 -.00000537  00000-0 -15650-4 0  9990","APOAPSIS":"540.406","ELEMENT_SET_NO":"999"},{"REF_FRAME":"TEME","NORAD_CAT_ID":"52682","TLE_LINE1":"1 52682U 22053AC  23137.23871550  .00000751  00000-0  65285-4 0  9995","BSTAR":"0.00006528500000","EPHEMERIS_TYPE":"0","EPOCH":"2023-05-17T05:43:45.019200","MEAN_ELEMENT_THEORY":"SGP4","ELEMENT_SET_NO":"999","APOAPSIS":"540.688","OBJECT_ID":"2022-053AC","SEMIMAJOR_AXIS":"6917.872","TLE_LINE2":"2 52682  53.2172  76.5221 0001375  99.8241 260.2907 15.08842734 56040","OBJECT_TYPE":"PAYLOAD","PERIAPSIS":"538.786","TIME_SYSTEM":"UTC","OBJECT_NAME":"STARLINK-4017","REV_AT_EPOCH":"5604","MEAN_ANOMALY":"260.2907","CENTER_NAME":"EARTH","ARG_OF_PERICENTER":"99.8241","COUNTRY_CODE":"US","ECCENTRICITY":"0.00013750","INCLINATION":"53.2172","LAUNCH_DATE":"2022-05-18","MEAN_MOTION_DDOT":"0.0000000000000","GP_ID":"232044847","PERIOD":"95.437","SITE":"AFETR","CLASSIFICATION_TYPE":"U","MEAN_MOTION_DOT":"0.00000751","MEAN_MOTION":"15.08842734","FILE":"3910633","RA_OF_ASC_NODE":"76.5221","DECAY_DATE":null,"RCS_SIZE":"LARGE"},{"DECAY_DATE":null,"RCS_SIZE":"LARGE","RA_OF_ASC_NODE":"76.6068","FILE":"3910633","MEAN_MOTION":"15.08847904","MEAN_MOTION_DOT":"0.00002103","SITE":"AFETR","CLASSIFICATION_TYPE":"U","PERIOD":"95.437","MEAN_MOTION_DDOT":"0.0000000000000","GP_ID":"232044095","LAUNCH_DATE":"2022-05-18","INCLINATION":"53.2175","ECCENTRICITY":"0.00010420","COUNTRY_CODE":"US","ARG_OF_PERICENTER":"82.4458","CENTER_NAME":"EARTH","MEAN_ANOMALY":"277.6652","REV_AT_EPOCH":"5602","OBJECT_NAME":"STARLINK-4039","PERIAPSIS":"539.000","TIME_SYSTEM":"UTC","OBJECT_TYPE":"PAYLOAD","SEMIMAJOR_AXIS":"6917.856","TLE_LINE2":"2 52683  53.2175  76.6068 0001042  82.4458 277.6652 15.08847904 56024","OBJECT_ID":"2022-053AD","APOAPSIS":"540.442","ELEMENT_SET_NO":"999","MEAN_ELEMENT_THEORY":"SGP4","EPHEMERIS_TYPE":"0","EPOCH":"2023-05-17T05:17:14.841888","TLE_LINE1":"1 52683U 22053AD  23137.22031067  .00002103  00000-0  15015-3 0  9994","BSTAR":"0.00015015000000","NORAD_CAT_ID":"52683","REF_FRAME":"TEME"},{"RA_OF_ASC_NODE":"77.1347","RCS_SIZE":"LARGE","DECAY_DATE":null,"FILE":"3910633","MEAN_MOTION":"15.08855010","MEAN_MOTION_DOT":"0.00000085","CLASSIFICATION_TYPE":"U","SITE":"AFETR","PERIOD":"95.437","GP_ID":"232044345","MEAN_MOTION_DDOT":"0.0000000000000","LAUNCH_DATE":"2022-05-18","ECCENTRICITY":"0.00015060","INCLINATION":"53.2188","COUNTRY_CODE":"US","ARG_OF_PERICENTER":"98.7395","REV_AT_EPOCH":"5600","MEAN_ANOMALY":"261.3768","CENTER_NAME":"EARTH","TIME_SYSTEM":"UTC","PERIAPSIS":"538.658","OBJECT_NAME":"STARLINK-4014","OBJECT_TYPE":"PAYLOAD","OBJECT_ID":"2022-053AE","SEMIMAJOR_AXIS":"6917.835","TLE_LINE2":"2 52684  53.2188  77.1347 0001506  98.7395 261.3768 15.08855010 56003","APOAPSIS":"540.741","ELEMENT_SET_NO":"999","MEAN_ELEMENT_THEORY":"SGP4","BSTAR":"0.00002345200000","TLE_LINE1":"1 52684U 22053AE  23137.10254624  .00000085  00000-0  23452-4 0  9990","EPOCH":"2023-05-17T02:27:39.995136","EPHEMERIS_TYPE":"0","REF_FRAME":"TEME","NORAD_CAT_ID":"52684"},{"ELEMENT_SET_NO":"999","APOAPSIS":"540.444","TLE_LINE1":"1 52685U 22053AF  23137.21295039  .00001658  00000-0  12222-3 0  9997","BSTAR":"0.00012222000000","EPHEMERIS_TYPE":"0","EPOCH":"2023-05-17T05:06:38.913696","NORAD_CAT_ID":"52685","REF_FRAME":"TEME","MEAN_ELEMENT_THEORY":"SGP4","REV_AT_EPOCH":"5600","MEAN_ANOMALY":"269.1209","CENTER_NAME":"EARTH","ECCENTRICITY":"0.00010490","INCLINATION":"53.2169","ARG_OF_PERICENTER":"90.9903","COUNTRY_CODE":"US","OBJECT_ID":"2022-053AF","SEMIMAJOR_AXIS":"6917.854","TLE_LINE2":"2 52685  53.2169  76.6417 0001049  90.9903 269.1209 15.08848791 56000","TIME_SYSTEM":"UTC","PERIAPSIS":"538.993","OBJECT_NAME":"STARLINK-4029","OBJECT_TYPE":"PAYLOAD","PERIOD":"95.437","MEAN_MOTION_DDOT":"0.0000000000000","GP_ID":"232044597","CLASSIFICATION_TYPE":"U","SITE":"AFETR","LAUNCH_DATE":"2022-05-18","FILE":"3910633","RA_OF_ASC_NODE":"76.6417","RCS_SIZE":"LARGE","DECAY_DATE":null,"MEAN_MOTION_DOT":"0.00001658","MEAN_MOTION":"15.08848791"},{"FILE":"3910633","DECAY_DATE":null,"RCS_SIZE":"LARGE","RA_OF_ASC_NODE":"77.1878","MEAN_MOTION_DOT":"-0.00000291","MEAN_MOTION":"15.08840738","PERIOD":"95.438","GP_ID":"232045347","MEAN_MOTION_DDOT":"0.0000000000000","SITE":"AFETR","CLASSIFICATION_TYPE":"U","LAUNCH_DATE":"2022-05-18","CENTER_NAME":"EARTH","MEAN_ANOMALY":"262.2623","REV_AT_EPOCH":"5599","INCLINATION":"53.2172","ECCENTRICITY":"0.00010940","COUNTRY_CODE":"US","ARG_OF_PERICENTER":"97.8493","SEMIMAJOR_AXIS":"6917.878","TLE_LINE2":"2 52686  53.2172  77.1878 0001094  97.8493 262.2623 15.08840738 55996","OBJECT_ID":"2022-053AG","OBJECT_NAME":"STARLINK-4005","PERIAPSIS":"538.986","TIME_SYSTEM":"UTC","OBJECT_TYPE":"PAYLOAD","ELEMENT_SET_NO":"999","APOAPSIS":"540.500","EPOCH":"2023-05-17T02:11:47.163840","EPHEMERIS_TYPE":"0","BSTAR":"-0.00000019680000","TLE_LINE1":"1 52686U 22053AG  23137.09151810 -.00000291  00000-0 -19680-6 0  9994","NORAD_CAT_ID":"52686","REF_FRAME":"TEME","MEAN_ELEMENT_THEORY":"SGP4"},{"RCS_SIZE":"LARGE","DECAY_DATE":null,"RA_OF_ASC_NODE":"76.6577","FILE":"3910633","MEAN_MOTION":"15.08826676","MEAN_MOTION_DOT":"0.00005606","CLASSIFICATION_TYPE":"U","SITE":"AFETR","GP_ID":"232043597","MEAN_MOTION_DDOT":"0.0000000000000","PERIOD":"95.438","LAUNCH_DATE":"2022-05-18","COUNTRY_CODE":"US","ARG_OF_PERICENTER":"118.0131","INCLINATION":"53.2171","ECCENTRICITY":"0.00010240","CENTER_NAME":"EARTH","REV_AT_EPOCH":"5600","MEAN_ANOMALY":"242.0965","OBJECT_TYPE":"PAYLOAD","OBJECT_NAME":"STARLINK-3981","TIME_SYSTEM":"UTC","PERIAPSIS":"539.078","SEMIMAJOR_AXIS":"6917.921","TLE_LINE2":"2 52687  53.2171  76.6577 0001024 118.0131 242.0965 15.08826676 56007","OBJECT_ID":"2022-053AH","APOAPSIS":"540.495","ELEMENT_SET_NO":"999","MEAN_ELEMENT_THEORY":"SGP4","REF_FRAME":"TEME","NORAD_CAT_ID":"52687","EPOCH":"2023-05-17T05:01:21.857664","EPHEMERIS_TYPE":"0","BSTAR":"0.00037017000000","TLE_LINE1":"1 52687U 22053AH  23137.20928076  .00005606  00000-0  37017-3 0  9998"},{"APOAPSIS":"540.624","ELEMENT_SET_NO":"999","MEAN_ELEMENT_THEORY":"SGP4","EPHEMERIS_TYPE":"0","EPOCH":"2023-05-17T06:31:24.979296","TLE_LINE1":"1 52688U 22053AJ  23137.27181689  .00001873  00000-0  13571-3 0  9998","BSTAR":"0.00013571000000","REF_FRAME":"TEME","NORAD_CAT_ID":"52688","INCLINATION":"53.2181","ECCENTRICITY":"0.00013080","ARG_OF_PERICENTER":"94.6594","COUNTRY_CODE":"US","CENTER_NAME":"EARTH","MEAN_ANOMALY":"265.4547","REV_AT_EPOCH":"5601","OBJECT_NAME":"STARLINK-4032","TIME_SYSTEM":"UTC","PERIAPSIS":"538.814","OBJECT_TYPE":"PAYLOAD","SEMIMAJOR_AXIS":"6917.854","TLE_LINE2":"2 52688  53.2181  76.2626 0001308  94.6594 265.4547 15.08848575 56015","OBJECT_ID":"2022-053AJ","CLASSIFICATION_TYPE":"U","SITE":"AFETR","PERIOD":"95.437","MEAN_MOTION_DDOT":"0.0000000000000","GP_ID":"232043847","LAUNCH_DATE":"2022-05-18","RCS_SIZE":"LARGE","DECAY_DATE":null,"RA_OF_ASC_NODE":"76.2626","FILE":"3910633","MEAN_MOTION":"15.08848575","MEAN_MOTION_DOT":"0.00001873"}];
